STARLINK-31667          
1 59609U 24080J   26068.27062851  .00003890  00000+0  15089-3 0  9991
2 59609  42.9959  36.3757 0001098 245.9723 114.1014 15.27556774104512
ARCSTONE                
1 64540U 25135N   26068.88991918  .00026427  00000+0  94900-3 0  9995
2 64540  97.4495 185.9194 0004120 166.7863 193.3485 15.28638458 39847
